{"fetched_at":"2026-03-29T16:36:15Z","count":15609,"tles":[{"name":"STARLINK-30411","line1":"1 57828U 23138W   26087.41548157 -.00001230  00000+0 -35207-4 0  9993","line2":"2 57828  43.0033 128.2719 0001703 280.1045  79.9614 15.27562115141531","category":"Starlink"}]}