{
  "norad_id": 57828,
  "name": "STARLINK-30411",
  "history": [
    {
      "epoch": "2026-03-28T09:58:17.607648Z",
      "apogee_km": 484.2712570235717,
      "perigee_km": 481.93404434896183,
      "latitude_deg": -3.1356079992879483e-05,
      "longitude_deg": 152.86224830466864,
      "height_km": 482.6749531189369,
      "semi_major_axis_km": 6861.239650686266,
      "eccentricity": 0.00017032,
      "inclination_deg": 43.0033,
      "raan_deg": 128.2719,
      "arg_perigee_deg": 280.1045,
      "mean_anomaly_deg": 79.9614,
      "mean_motion_rev_day": 15.27562115
    }
  ]
}